
    {
        "ARG_OF_PERICENTER": 96.4887,
        "BSTAR": 7.9719644e-05,
        "CLASSIFICATION_TYPE": "U",
        "ECCENTRICITY": 0.00141313,
        "ELEMENT_SET_NO": 999,
        "EPHEMERIS_TYPE": 0,
        "EPOCH": "2026-05-21T11:13:27.530400",
        "INCLINATION": 98.3158,
        "MEAN_ANOMALY": 263.7934,
        "MEAN_MOTION": 14.81225039,
        "MEAN_MOTION_DDOT": 0,
        "MEAN_MOTION_DOT": 5.64e-06,
        "NORAD_CAT_ID": 40056,
        "OBJECT_ID": "2014-034D",
        "OBJECT_NAME": "CANX-5",
        "RA_OF_ASC_NODE": 15.8381,
        "REV_AT_EPOCH": 63138
    },
    {
        "ARG_OF_PERICENTER": 139.015,
        "BSTAR": 0.0003147282,
        "CLASSIFICATION_TYPE": "U",
        "ECCENTRICITY": 6.251e-05,
        "ELEMENT_SET_NO": 999,
        "EPHEMERIS_TYPE": 0,
        "EPOCH": "2026-05-21T10:55:45.116256",
        "INCLINATION": 98.4247,
        "MEAN_ANOMALY": 221.1125,
        "MEAN_MOTION": 15.13063709,
        "MEAN_MOTION_DDOT": 0,
        "MEAN_MOTION_DOT": 5.489e-05,
        "NORAD_CAT_ID": 40074,
        "OBJECT_ID": "2014-037F",
        "OBJECT_NAME": "UKUBE-1",
        "RA_OF_ASC_NODE": 141.9303,
        "REV_AT_EPOCH": 64451
    },
    {
        "ARG_OF_PERICENTER": 192.203,
        "BSTAR": 0.00015195261,
        "CLASSIFICATION_TYPE": "U",
        "ECCENTRICITY": 0.00137906,
        "ELEMENT_SET_NO": 999,
        "EPHEMERIS_TYPE": 0,
        "EPOCH": "2026-05-21T12:36:52.555392",
        "INCLINATION": 97.9071,
        "MEAN_ANOMALY": 167.8857,
        "MEAN_MOTION": 14.94478729,
        "MEAN_MOTION_DDOT": 0,
        "MEAN_MOTION_DOT": 1.583e-05,
        "NORAD_CAT_ID": 40119,
        "OBJECT_ID": "2014-049B",
        "OBJECT_NAME": "BRITE-PL2 (HEWELIUSZ)",
        "RA_OF_ASC_NODE": 253.3266,
        "REV_AT_EPOCH": 63746
    },
    {
        "ARG_OF_PERICENTER": 73.7557,
        "BSTAR": 0.00019395738,
        "CLASSIFICATION_TYPE": "U",
        "ECCENTRICITY": 0.01299888,
        "ELEMENT_SET_NO": 999,
        "EPHEMERIS_TYPE": 0,
        "EPOCH": "2026-05-21T13:11:14.505216",
        "INCLINATION": 64.7681,
        "MEAN_ANOMALY": 287.781,
        "MEAN_MOTION": 14.91285996,
        "MEAN_MOTION_DDOT": 0,
        "MEAN_MOTION_DOT": 2.097e-05,
        "NORAD_CAT_ID": 40965,
        "OBJECT_ID": "2015-058B",
        "OBJECT_NAME": "AEROCUBE 5C",
        "RA_OF_ASC_NODE": 345.4495,
        "REV_AT_EPOCH": 36168
    },
    {
        "ARG_OF_PERICENTER": 72.687,
        "BSTAR": 0.00023986743,
        "CLASSIFICATION_TYPE": "U",
        "ECCENTRICITY": 0.01197307,
        "ELEMENT_SET_NO": 999,
        "EPHEMERIS_TYPE": 0,
        "EPOCH": "2026-05-20T19:39:18.023040",
        "INCLINATION": 64.763,
        "MEAN_ANOMALY": 288.7301,
        "MEAN_MOTION": 14.95493189,
        "MEAN_MOTION_DDOT": 0,
        "MEAN_MOTION_DOT": 2.892e-05,
        "NORAD_CAT_ID": 40966,
        "OBJECT_ID": "2015-058C",
        "OBJECT_NAME": "AEROCUBE 7",
        "RA_OF_ASC_NODE": 330.5249,
        "REV_AT_EPOCH": 36186
    },
    {
        "ARG_OF_PERICENTER": 67.2463,
        "BSTAR": 0.00020016129,
        "CLASSIFICATION_TYPE": "U",
        "ECCENTRICITY": 0.01292861,
        "ELEMENT_SET_NO": 999,
        "EPHEMERIS_TYPE": 0,
        "EPOCH": "2026-05-21T01:14:27.553056",
        "INCLINATION": 64.7762,
        "MEAN_ANOMALY": 294.2251,
        "MEAN_MOTION": 14.90792762,
        "MEAN_MOTION_DDOT": 0,
        "MEAN_MOTION_DOT": 2.136e-05,
        "NORAD_CAT_ID": 40967,
        "OBJECT_ID": "2015-058D",
        "OBJECT_NAME": "FOX-1A (AO-85)",
        "RA_OF_ASC_NODE": 3.3023,
        "REV_AT_EPOCH": 10952
    },
    {
        "ARG_OF_PERICENTER": 63.7848,
        "BSTAR": 0.00024854689,
        "CLASSIFICATION_TYPE": "U",
        "ECCENTRICITY": 0.01178188,
        "ELEMENT_SET_NO": 999,
        "EPHEMERIS_TYPE": 0,
        "EPOCH": "2026-05-21T12:51:22.458240",
        "INCLINATION": 64.7762,
        "MEAN_ANOMALY": 297.5322,
        "MEAN_MOTION": 14.95676717,
        "MEAN_MOTION_DDOT": 0,
        "MEAN_MOTION_DOT": 3.006e-05,
        "NORAD_CAT_ID": 40968,
        "OBJECT_ID": "2015-058E",
        "OBJECT_NAME": "SINOD-D 1",
        "RA_OF_ASC_NODE": 342.3613,
        "REV_AT_EPOCH": 11267
    },
    {
        "ARG_OF_PERICENTER": 25.5487,
        "BSTAR": 0.00082382355,
        "CLASSIFICATION_TYPE": "U",
        "ECCENTRICITY": 0.00334198,
        "ELEMENT_SET_NO": 999,
        "EPHEMERIS_TYPE": 0,
        "EPOCH": "2026-05-21T12:27:10.917504",
        "INCLINATION": 64.7512,
        "MEAN_ANOMALY": 334.7299,
        "MEAN_MOTION": 15.5437082,
        "MEAN_MOTION_DDOT": 0,
        "MEAN_MOTION_DOT": 0.00055808,
        "NORAD_CAT_ID": 40970,
        "OBJECT_ID": "2015-058G",
        "OBJECT_NAME": "SNAP-3 ALICE",
        "RA_OF_ASC_NODE": 195.6903,
        "REV_AT_EPOCH": 11273
    },
    {
        "ARG_OF_PERICENTER": 69.1488,
        "BSTAR": 0.00020944923,
        "CLASSIFICATION_TYPE": "U",
        "ECCENTRICITY": 0.01310464,
        "ELEMENT_SET_NO": 999,
        "EPHEMERIS_TYPE": 0,
        "EPOCH": "2026-05-21T08:03:20.461536",
        "INCLINATION": 64.7768,
        "MEAN_ANOMALY": 292.36,
        "MEAN_MOTION": 14.90420212,
        "MEAN_MOTION_DDOT": 0,
        "MEAN_MOTION_DOT": 2.231e-05,
        "NORAD_CAT_ID": 40971,
        "OBJECT_ID": "2015-058H",
        "OBJECT_NAME": "LMRST-SAT",
        "RA_OF_ASC_NODE": 358.7075,
        "REV_AT_EPOCH": 10955
    },
    {
        "ARG_OF_PERICENTER": 29.3335,
        "BSTAR": 0.00075061458,
        "CLASSIFICATION_TYPE": "U",
        "ECCENTRICITY": 0.00337526,
        "ELEMENT_SET_NO": 999,
        "EPHEMERIS_TYPE": 0,
        "EPOCH": "2026-05-21T12:42:17.391744",
        "INCLINATION": 64.7429,
        "MEAN_ANOMALY": 330.9693,
        "MEAN_MOTION": 15.55521247,
        "MEAN_MOTION_DDOT": 0,
        "MEAN_MOTION_DOT": 0.00053049,
        "NORAD_CAT_ID": 40972,
        "OBJECT_ID": "2015-058J",
        "OBJECT_NAME": "SNAP-3 EDDIE",
        "RA_OF_ASC_NODE": 186.5707,
        "REV_AT_EPOCH": 11487
    },
    {
        "ARG_OF_PERICENTER": 70.5605,
        "BSTAR": 0.00022205202,
        "CLASSIFICATION_TYPE": "U",
        "ECCENTRICITY": 0.01231581,
        "ELEMENT_SET_NO": 999,
        "EPHEMERIS_TYPE": 0,
        "EPOCH": "2026-05-21T12:05:30.093792",
        "INCLINATION": 64.7691,
        "MEAN_ANOMALY": 290.8768,
        "MEAN_MOTION": 14.94057114,
        "MEAN_MOTION_DDOT": 0,
        "MEAN_MOTION_DOT": 2.579e-05,
        "NORAD_CAT_ID": 40973,
        "OBJECT_ID": "2015-058K",
        "OBJECT_NAME": "PROPCUBE 3",
        "RA_OF_ASC_NODE": 335.893,
        "REV_AT_EPOCH": 11081
    },
    {
        "ARG_OF_PERICENTER": 58.7051,
        "BSTAR": 0.00037356002,
        "CLASSIFICATION_TYPE": "U",
        "ECCENTRICITY": 0.0078499,
        "ELEMENT_SET_NO": 999,
        "EPHEMERIS_TYPE": 0,
        "EPOCH": "2026-05-21T01:12:57.635712",
        "INCLINATION": 64.76,
        "MEAN_ANOMALY": 302.1729,
        "MEAN_MOTION": 15.15589412,
        "MEAN_MOTION_DDOT": 0,
        "MEAN_MOTION_DOT": 7.498e-05,
        "NORAD_CAT_ID": 40974,
        "OBJECT_ID": "2015-058L",
        "OBJECT_NAME": "BISONSAT",
        "RA_OF_ASC_NODE": 261.3343,
        "REV_AT_EPOCH": 11150
    }